NAME,STREETNAME,CITY,ZIP
New School University / Parsons School Of Design,FIFTH AVENUE,New York,10011
New School University / The New School,WEST 12 STREET,New York,10011
Metropolitan College,VARICK STREET,New York,10013
"School Of Nursing Of St. Vincents Catholic Medical Centers, The",HORACE HARDING EXPRESSWAY,Fresh Meadows,11365
Bramson Ort College,AUSTIN STREET,Forest Hills,11375
St. John's University / Queens Campus,UTOPIA PARKWAY,Jamaica,11432
"College Of Aeronautics, Laguardia Airport",23 AVENUE,East Elmhurst,11369
Wagner College,CAMPUS ROAD,Staten Island,10301
Fashion Institute Of Technology (Suny),7 AVENUE & WEST 27 STREET,New York,10001
Herbert H Lehman College (Cuny),BEDFORD PARK BLVD WEST,Bronx,10468
Eugenio Maria De Hostos Comm Coll (Cuny),GRAND CONCOURSE,Bronx,10451
Bronx Community College (Cuny),WEST 181 STREET,Bronx,10453
Medgar Evers College (Cuny),BEDFORD AVENUE,Brooklyn,11225
Brooklyn College (Cuny),BEDFORD AVENUE,Brooklyn,11210
Nyc Technical College (Cuny),JAY STREET,Brooklyn,11201
Health Science Center At Brooklyn (Suny),CLARKSON AVENUE,Brooklyn,11203
Hunter College School Social Work (Cuny),EAST 79 STREET,New York,10021
Bernard M Baruch College (Cuny),EAST 24 STREET,New York,10010
Borough Of Manhattan Comm College (Cuny),CHAMBERS STREET,New York,10013
Nys College Of Optometry (Suny),WEST 42 STREET,New York,10036
Cuny Grad School&University Center (Cuny),FIFTH AVENUE,New York,10016
Baruch Grad Sch Of Politcal Management,LEXINGTON AVENUE,New York,10010
Hunter College (Cuny),PARK AVENUE,New York,10021
John Jay College Criminal Justice (Cuny),10 AVENUE,New York,10019
Queensborough Community College (Cuny),56 AVENUE,Oakland Gardens,11364
Fiorello H Laguardia Comm College (Cuny),THOMSON AVENUE,Long Island City,11101
School Of Law At Queens College (Cuny),MAIN STREET,Flushing,11367
Queens College (Cuny),KISSENA BOULEVARD,Flushing,11367
Queens Coll Sch Math & Science,KISSENA BOULEVARD,Flushing,11367
York College (Cuny),GUY R BREWER BOULEVARD,Jamaica,11433
College Of Staten Island (Cuny),VICTORY BOULEVARD,Staten Island,10314
"College Of New Rochelle, The / School Of New Resources/John Cardinal O?Connor Campus",EAST 149 STREET,Bronx,10451
Fordham University,EAST FORDHAM ROAD,Bronx,10458
Manhattan College,MANHATTAN COLLEGE PARKWAY,Bronx,10471
College Of Mount St. Vincent,RIVERDALE AVENUE,Bronx,10471
"College Of New Rochelle, The / School Of New Resources/Co-Op City Campus",CO-OP CITY BOULEVARD,Bronx,10475
Long Island University / Brooklyn Campus,UNIVERSITY PLAZA,Brooklyn,11201
"College Of New Rochelle, The / School Of New Resources/Brooklyn Campus",FULTON STREET,Brooklyn,11216
Institute Of Design And Construction,WILLOUGHBY STREET,Brooklyn,11201
St. Francis College,REMSEN STREET,Brooklyn,11201
"Boricua College, Northside Center",NORTH 6 STREET,Brooklyn,11211
Pratt Institute,WILLOUGHBY AVENUE,Brooklyn,11205
St. Joseph's College / Brooklyn Campus,CLINTON AVENUE,Brooklyn,11205
Long Island College Hospital School Of Nursing,HICKS STREET,Brooklyn,11201
Polytechnic University / Brooklyn-Metrotech Campus,METROTECH CENTER,Brooklyn,11201
"Boricua College, Graham Center",GRAHAM AVENUE,Brooklyn,11206
Pace University / New York City Campus,PACE PLAZA,New York,10038
St. John's University / Manhattan Campus,MURRAY STREET,New York,10007
Fordham University/Lincoln Center Campus,WEST 60 STREET,New York,10023
Columbia University,AMSTERDAM AVENUE,New York,10027
Manhattan School Of Music,CLAREMONT AVENUE,New York,10027
"Rockefeller University, The",YORK AVENUE,New York,10021
"College Of New Rochelle, The / School Of New Resources/District Council 37 Campus",BARCLAY STREET,New York,10007
Cornell University / Weill Medical College Of Cornell University,YORK AVENUE,New York,10021
"College Of New Rochelle, The / School Of New Resources/Rosa Parks Campus",WEST 125 STREET,New York,10027
New School University / Mannes College Of Music,WEST 85 STREET,New York,10024
New York School Of Interior Design,EAST 70 STREET,New York,10021
New York College Of Podiatric Medicine,PARK AVENUE,New York,10035
Helene Fuld College Of Nursing Of North General Hospital,MADISON AVENUE,New York,10035
New York University,WASHINGTON SQUARE NORTH,New York,10011
Marymount Manhattan College,EAST 71 STREET,New York,10021
"College Of New Rochelle, The / School Of New Resources/New York Theological Seminary Campus",WEST 29 STREET,New York,10001
Touro College,WEST 23 STREET,New York,10010
Pratt Institute / Manhattan Campus,LAFAYETTE STREET,New York,10012
"Cooper Union, The / For The Advancement Of Science And Art Suite 300",COOPER SQUARE,New York,10003
Barnard College,BROADWAY,New York,10027
Jewish Theological Seminary / List College Of Jewish Studies,BROADWAY,New York,10027
Phillips Beth Israel School Of Nursing,EAST 22 STREET,New York,10010
Boricua College,BROADWAY,New York,10032
Cornell University / Weill Graduate School Of Medical Sciences Of Cornell University,EAST 69 STREET,New York,10021
American Academy Mcallister Institute Of Funeral Service,WEST 56 STREET,New York,10019
Yeshiva University,WEST 185 STREET,New York,10033
"Teachers College, Columbia University",WEST 120 STREET,New York,10027
New School University / Jazz And Contemporary Music Program,WEST 13 STREET,New York,10011
Bank Street College Of Education / Graduate School Of Education,WEST 112 STREET,New York,10025
New School University / Eugene Lang College,WEST 11 STREET,New York,10011
The City College of New York,CONVENT AVENUE,New York,10031